LUR-1                   
1 60506U 24149AQ  26068.79566301  .00009121  00000+0  32985-3 0  9998
2 60506  97.3790 148.4255 0002777 309.1571  50.9421 15.28658648 86785
STARLINK-32418          
1 62429U 24249W   26068.09725305  .00037322  00000+0  13582-2 0  9994
2 62429  43.0035 317.3630 0002836 248.5584 111.4966 15.27594460 67721
